{
  "links" : {
    "next" : "https://api.nasa.gov/neo/rest/v1/feed?start_date=2014-04-09&end_date=2014-04-09&detailed=true&api_key=t0TVs3DtDT2H8Oy2Zy8m2eVrNsAVKAexjcZXUckd",
    "prev" : "https://api.nasa.gov/neo/rest/v1/feed?start_date=2014-04-07&end_date=2014-04-07&detailed=true&api_key=t0TVs3DtDT2H8Oy2Zy8m2eVrNsAVKAexjcZXUckd",
    "self" : "https://api.nasa.gov/neo/rest/v1/feed?start_date=2014-04-08&end_date=2014-04-08&detailed=true&api_key=t0TVs3DtDT2H8Oy2Zy8m2eVrNsAVKAexjcZXUckd"
  },
  "element_count" : 7,
  "near_earth_objects" : {
    "2014-04-08" : [ {
      "links" : {
        "self" : "https://api.nasa.gov/neo/rest/v1/neo/3744320?api_key=t0TVs3DtDT2H8Oy2Zy8m2eVrNsAVKAexjcZXUckd"
      },
      "neo_reference_id" : "3744320",
      "name" : "(2016 CZ247)",
      "nasa_jpl_url" : "http://ssd.jpl.nasa.gov/sbdb.cgi?sstr=3744320",
      "absolute_magnitude_h" : 26.9,
      "estimated_diameter" : {
        "kilometers" : {
          "estimated_diameter_min" : 0.0110803882,
          "estimated_diameter_max" : 0.0247765013
        },
        "meters" : {
          "estimated_diameter_min" : 11.0803882126,
          "estimated_diameter_max" : 24.7765012606
        },
        "miles" : {
          "estimated_diameter_min" : 0.0068850319,
          "estimated_diameter_max" : 0.0153953994
        },
        "feet" : {
          "estimated_diameter_min" : 36.3529808636,
          "estimated_diameter_max" : 81.2877363957
        }
      },
      "is_potentially_hazardous_asteroid" : false,
      "close_approach_data" : [ {
        "close_approach_date" : "2014-04-08",
        "epoch_date_close_approach" : 1396940400000,
        "relative_velocity" : {
          "kilometers_per_second" : "9.8516472467",
          "kilometers_per_hour" : "35465.9300879758",
          "miles_per_hour" : "22037.1497260536"
        },
        "miss_distance" : {
          "astronomical" : "0.426619526",
          "lunar" : "165.9550018311",
          "kilometers" : "63821372",
          "miles" : "39656764"
        },
        "orbiting_body" : "Earth"
      } ],
      "orbital_data" : {
        "orbit_id" : "4",
        "orbit_determination_date" : "2017-04-06 08:28:12",
        "orbit_uncertainty" : "8",
        "minimum_orbit_intersection" : ".0104508",
        "jupiter_tisserand_invariant" : "5.851",
        "epoch_osculation" : "2457434.5",
        "eccentricity" : ".3744821760169705",
        "semi_major_axis" : "1.033944878591434",
        "inclination" : "8.015083851093761",
        "ascending_node_longitude" : "325.1110289290093",
        "orbital_period" : "384.0117440869682",
        "perihelion_distance" : ".6467509505749111",
        "perihelion_argument" : "70.05275003133652",
        "aphelion_distance" : "1.421138806607956",
        "perihelion_time" : "2457362.182012247161",
        "mean_anomaly" : "67.79604007403988",
        "mean_motion" : ".937471328789543",
        "equinox" : "J2000"
      }
    } ]
  }
}